[{"OBJECT_NAME":"HXMT (HUIYAN)","OBJECT_ID":"2017-034A","EPOCH":"2026-03-08T07:54:31.673664","MEAN_MOTION":15.17442317,"ECCENTRICITY":0.00327645,"INCLINATION":43.0154,"RA_OF_ASC_NODE":24.2346,"ARG_OF_PERICENTER":227.7034,"MEAN_ANOMALY":132.1036,"EPHEMERIS_TYPE":0,"CLASSIFICATION_TYPE":"U","NORAD_CAT_ID":42758,"ELEMENT_SET_NO":999,"REV_AT_EPOCH":48233,"BSTAR":0.00048952789,"MEAN_MOTION_DOT":9.885e-5,"MEAN_MOTION_DDOT":0},{"OBJECT_NAME":"SAOCOM 1A","OBJECT_ID":"2018-076A","EPOCH":"2026-03-08T14:42:25.807680","MEAN_MOTION":14.82169479,"ECCENTRICITY":0.00012903,"INCLINATION":97.889,"RA_OF_ASC_NODE":255.8003,"ARG_OF_PERICENTER":85.788,"MEAN_ANOMALY":274.348,"EPHEMERIS_TYPE":0,"CLASSIFICATION_TYPE":"U","NORAD_CAT_ID":43641,"ELEMENT_SET_NO":999,"REV_AT_EPOCH":40120,"BSTAR":0.00013490931,"MEAN_MOTION_DOT":1.022e-5,"MEAN_MOTION_DDOT":0},{"OBJECT_NAME":"H-2A R/B","OBJECT_ID":"2018-084L","EPOCH":"2026-03-08T13:32:34.946304","MEAN_MOTION":15.4129344,"ECCENTRICITY":0.00255545,"INCLINATION":98.873,"RA_OF_ASC_NODE":284.7117,"ARG_OF_PERICENTER":29.1244,"MEAN_ANOMALY":331.1417,"EPHEMERIS_TYPE":0,"CLASSIFICATION_TYPE":"U","NORAD_CAT_ID":43682,"ELEMENT_SET_NO":999,"REV_AT_EPOCH":40560,"BSTAR":0.00069755934,"MEAN_MOTION_DOT":0.0002935,"MEAN_MOTION_DDOT":0},{"OBJECT_NAME":"SAOCOM 1B","OBJECT_ID":"2020-059A","EPOCH":"2026-03-06T22:57:01.124064","MEAN_MOTION":14.82173062,"ECCENTRICITY":0.00015046,"INCLINATION":97.8885,"RA_OF_ASC_NODE":253.2654,"ARG_OF_PERICENTER":81.2285,"MEAN_ANOMALY":278.9098,"EPHEMERIS_TYPE":0,"CLASSIFICATION_TYPE":"U","NORAD_CAT_ID":46265,"ELEMENT_SET_NO":999,"REV_AT_EPOCH":29834,"BSTAR":0.00017595012,"MEAN_MOTION_DOT":1.349e-5,"MEAN_MOTION_DDOT":0},{"OBJECT_NAME":"CSS (TIANHE)","OBJECT_ID":"2021-035A","EPOCH":"2026-03-08T15:03:52.797024","MEAN_MOTION":15.6059651,"ECCENTRICITY":0.00069467,"INCLINATION":41.4663,"RA_OF_ASC_NODE":214.6233,"ARG_OF_PERICENTER":266.6705,"MEAN_ANOMALY":93.3339,"EPHEMERIS_TYPE":0,"CLASSIFICATION_TYPE":"U","NORAD_CAT_ID":48274,"ELEMENT_SET_NO":999,"REV_AT_EPOCH":27744,"BSTAR":0.00033079652,"MEAN_MOTION_DOT":0.00027939,"MEAN_MOTION_DDOT":0},{"OBJECT_NAME":"COSMOS 2550","OBJECT_ID":"2021-056A","EPOCH":"2026-03-08T11:22:34.326624","MEAN_MOTION":15.33829151,"ECCENTRICITY":0.00083692,"INCLINATION":67.1451,"RA_OF_ASC_NODE":44.6088,"ARG_OF_PERICENTER":269.6014,"MEAN_ANOMALY":90.4182,"EPHEMERIS_TYPE":0,"CLASSIFICATION_TYPE":"U","NORAD_CAT_ID":48865,"ELEMENT_SET_NO":999,"REV_AT_EPOCH":26327,"BSTAR":-1.3338e-8,"MEAN_MOTION_DOT":-1.92e-6,"MEAN_MOTION_DDOT":0},{"OBJECT_NAME":"CZ-2C R/B","OBJECT_ID":"2022-058K","EPOCH":"2026-03-08T02:20:56.384448","MEAN_MOTION":15.54100851,"ECCENTRICITY":0.00421766,"INCLINATION":50.1897,"RA_OF_ASC_NODE":326.4776,"ARG_OF_PERICENTER":194.0797,"MEAN_ANOMALY":165.9,"EPHEMERIS_TYPE":0,"CLASSIFICATION_TYPE":"U","NORAD_CAT_ID":52794,"ELEMENT_SET_NO":999,"REV_AT_EPOCH":20988,"BSTAR":0.00068668989,"MEAN_MOTION_DOT":0.00047047,"MEAN_MOTION_DDOT":0},{"OBJECT_NAME":"CZ-2C R/B","OBJECT_ID":"2022-132E","EPOCH":"2026-03-08T12:55:45.186816","MEAN_MOTION":15.61734579,"ECCENTRICITY":0.00206898,"INCLINATION":97.2969,"RA_OF_ASC_NODE":70.8203,"ARG_OF_PERICENTER":95.1831,"MEAN_ANOMALY":265.1789,"EPHEMERIS_TYPE":0,"CLASSIFICATION_TYPE":"U","NORAD_CAT_ID":54039,"ELEMENT_SET_NO":999,"REV_AT_EPOCH":19019,"BSTAR":0.00060048827,"MEAN_MOTION_DOT":0.00052505,"MEAN_MOTION_DDOT":0},{"OBJECT_NAME":"GSLV R/B","OBJECT_ID":"2022-138AN","EPOCH":"2026-03-08T07:36:15.884064","MEAN_MOTION":14.96764911,"ECCENTRICITY":0.00228734,"INCLINATION":87.3879,"RA_OF_ASC_NODE":166.8219,"ARG_OF_PERICENTER":151.5173,"MEAN_ANOMALY":208.7314,"EPHEMERIS_TYPE":0,"CLASSIFICATION_TYPE":"U","NORAD_CAT_ID":54149,"ELEMENT_SET_NO":999,"REV_AT_EPOCH":18372,"BSTAR":0.00041096899,"MEAN_MOTION_DOT":4.751e-5,"MEAN_MOTION_DDOT":0},{"OBJECT_NAME":"XRISM","OBJECT_ID":"2023-137A","EPOCH":"2026-03-08T15:36:05.274720","MEAN_MOTION":15.11488748,"ECCENTRICITY":0.00080114,"INCLINATION":31.002,"RA_OF_ASC_NODE":290.3882,"ARG_OF_PERICENTER":27.6079,"MEAN_ANOMALY":332.4983,"EPHEMERIS_TYPE":0,"CLASSIFICATION_TYPE":"U","NORAD_CAT_ID":57800,"ELEMENT_SET_NO":999,"REV_AT_EPOCH":13763,"BSTAR":0.00046528968,"MEAN_MOTION_DOT":8.177e-5,"MEAN_MOTION_DDOT":0},{"OBJECT_NAME":"ACS3","OBJECT_ID":"2024-077B","EPOCH":"2026-03-08T13:29:10.300992","MEAN_MOTION":13.89562302,"ECCENTRICITY":0.00589705,"INCLINATION":97.208,"RA_OF_ASC_NODE":8.9277,"ARG_OF_PERICENTER":79.6632,"MEAN_ANOMALY":281.1172,"EPHEMERIS_TYPE":0,"CLASSIFICATION_TYPE":"U","NORAD_CAT_ID":59588,"ELEMENT_SET_NO":999,"REV_AT_EPOCH":9404,"BSTAR":0.026821488,"MEAN_MOTION_DOT":0.00033385,"MEAN_MOTION_DDOT":0},{"OBJECT_NAME":"SZ-21 MODULE","OBJECT_ID":"2025-246C","EPOCH":"2026-03-08T11:33:38.438496","MEAN_MOTION":15.68439645,"ECCENTRICITY":0.00013767,"INCLINATION":41.4736,"RA_OF_ASC_NODE":210.796,"ARG_OF_PERICENTER":295.9249,"MEAN_ANOMALY":64.1451,"EPHEMERIS_TYPE":0,"CLASSIFICATION_TYPE":"U","NORAD_CAT_ID":66515,"ELEMENT_SET_NO":999,"REV_AT_EPOCH":1788,"BSTAR":0.00041839405,"MEAN_MOTION_DOT":0.00048562,"MEAN_MOTION_DDOT":0}]
